STARLINK-1153           
1 45080U 20006AN  25279.12770919 -.00000360  00000+0 -52871-5 0  9994
2 45080  53.0541 240.4753 0001346  91.9923 268.1220 15.06405688313448
STARLINK-1151           
1 45081U 20006AP  25279.17932802  .00002187  00000+0  16561-3 0  9992
2 45081  53.0540 240.3179 0001419  92.6038 267.5113 15.06409888313456
STARLINK-1190           
1 45083U 20006AR  25279.09403625  .00157113  00000+0  87537-3 0  9992
2 45083  53.0469 205.5163 0007496  92.9224 267.2654 15.78442998313933
STARLINK-1173           
1 45084U 20006AS  25279.00002315  .00278569  40399-4  81421-3 0  9990
2 45084  53.0413 168.6679 0003993  72.5760 225.8162 15.92342463  6004
STARLINK-1179           
1 45085U 20006AT  25278.13464752  .10053174  12378-4  56146-3 0  9997
2 45085  53.0243 161.3818 0004864 238.8325 121.2245 16.42084533314463
STARLINK-1185           
1 45087U 20006AV  25279.15536296  .00004020  00000+0  28853-3 0  9998
2 45087  53.0537 220.3484 0001419  92.8475 267.2677 15.06408157313733
STARLINK-1183           
1 45088U 20006AW  25279.11112708  .00005446  00000+0  38420-3 0  9997
2 45088  53.0537 220.5478 0001261  92.8127 267.3006 15.06402199313724
STARLINK-1176           
1 45090U 20006AY  25279.38503687  .00271405  00000+0  88800-3 0  9996
2 45090  53.0468 164.7263 0001834  62.2974 297.8237 15.89368919314534
STARLINK-1142           
1 45093U 20006BB  25278.40278796  .00106190  00000+0  16021-2 0  9994
2 45093  53.0375 166.4881 0005157 132.7239 227.4206 15.53943634314425
STARLINK-1147           
1 45095U 20006BD  25279.69625434  .00350642  68325-4  46160-3 0  9993
2 45095  53.0333 158.4075 0001409 149.8355 310.9228 16.06319347314936
STARLINK-1152           
1 45096U 20006BE  25279.26114516  .00031512  00000+0  13545-2 0  9994
2 45096  53.0469 205.0314 0008634  92.2652 267.9332 15.22385449313951
STARLINK-1184           
1 45098U 20006BG  25279.05952588  .00001497  00000+0  11932-3 0  9990
2 45098  53.0541 220.7798 0001429  93.3966 266.7187 15.06408294313714
STARLINK-1193           
1 45100U 20006BJ  25279.12218649  .00010408  00000+0  71637-3 0  9995
2 45100  53.0544 220.4972 0001558  92.5275 267.5892 15.06411650313722
STARLINK-1143           
1 45179U 20012B   25279.50917860  .00055967  00000+0  15439-2 0  9997
2 45179  53.0557 348.1286 0005097 299.8652  60.1843 15.36569852312038
STARLINK-1202           
1 45183U 20012F   25279.51657897  .00000510  00000+0  53131-4 0  9991
2 45183  53.0571  18.7303 0001387  93.6349 266.4799 15.06401029311601
STARLINK-1216           
1 45185U 20012H   25279.50921841 -.00001139  00000+0 -57604-4 0  9994
2 45185  53.0563  18.7596 0001767 101.5116 258.6071 15.06383245311549
