[{"OBJECT_NAME":"STARLINK-1153","OBJECT_ID":"2020-006AN","EPOCH":"2025-10-06T03:03:54.074016","MEAN_MOTION":15.06405688,"ECCENTRICITY":0.0001346,"INCLINATION":53.0541,"RA_OF_ASC_NODE":240.4753,"ARG_OF_PERICENTER":91.9923,"MEAN_ANOMALY":268.122,"EPHEMERIS_TYPE":0,"CLASSIFICATION_TYPE":"U","NORAD_CAT_ID":45080,"ELEMENT_SET_NO":999,"REV_AT_EPOCH":31344,"BSTAR":-5.2871e-6,"MEAN_MOTION_DOT":-3.6e-6,"MEAN_MOTION_DDOT":0},{"OBJECT_NAME":"STARLINK-1151","OBJECT_ID":"2020-006AP","EPOCH":"2025-10-06T04:18:13.940928","MEAN_MOTION":15.06409888,"ECCENTRICITY":0.0001419,"INCLINATION":53.054,"RA_OF_ASC_NODE":240.3179,"ARG_OF_PERICENTER":92.6038,"MEAN_ANOMALY":267.5113,"EPHEMERIS_TYPE":0,"CLASSIFICATION_TYPE":"U","NORAD_CAT_ID":45081,"ELEMENT_SET_NO":999,"REV_AT_EPOCH":31345,"BSTAR":0.00016561,"MEAN_MOTION_DOT":2.187e-5,"MEAN_MOTION_DDOT":0},{"OBJECT_NAME":"STARLINK-1190","OBJECT_ID":"2020-006AR","EPOCH":"2025-10-06T02:15:24.732000","MEAN_MOTION":15.78442998,"ECCENTRICITY":0.0007496,"INCLINATION":53.0469,"RA_OF_ASC_NODE":205.5163,"ARG_OF_PERICENTER":92.9224,"MEAN_ANOMALY":267.2654,"EPHEMERIS_TYPE":0,"CLASSIFICATION_TYPE":"U","NORAD_CAT_ID":45083,"ELEMENT_SET_NO":999,"REV_AT_EPOCH":31393,"BSTAR":0.00087537,"MEAN_MOTION_DOT":0.00157113,"MEAN_MOTION_DDOT":0},{"OBJECT_NAME":"STARLINK-1173","OBJECT_ID":"2020-006AS","EPOCH":"2025-10-06T00:00:02.000160","MEAN_MOTION":15.92342463,"ECCENTRICITY":0.0003993,"INCLINATION":53.0413,"RA_OF_ASC_NODE":168.6679,"ARG_OF_PERICENTER":72.576,"MEAN_ANOMALY":225.8162,"EPHEMERIS_TYPE":0,"CLASSIFICATION_TYPE":"U","NORAD_CAT_ID":45084,"ELEMENT_SET_NO":999,"REV_AT_EPOCH":600,"BSTAR":0.00081421,"MEAN_MOTION_DOT":0.00278569,"MEAN_MOTION_DDOT":4.0399e-5},{"OBJECT_NAME":"STARLINK-1179","OBJECT_ID":"2020-006AT","EPOCH":"2025-10-05T03:13:53.545728","MEAN_MOTION":16.42084533,"ECCENTRICITY":0.0004864,"INCLINATION":53.0243,"RA_OF_ASC_NODE":161.3818,"ARG_OF_PERICENTER":238.8325,"MEAN_ANOMALY":121.2245,"EPHEMERIS_TYPE":0,"CLASSIFICATION_TYPE":"U","NORAD_CAT_ID":45085,"ELEMENT_SET_NO":999,"REV_AT_EPOCH":31446,"BSTAR":0.00056146,"MEAN_MOTION_DOT":0.10053174,"MEAN_MOTION_DDOT":1.2378e-5},{"OBJECT_NAME":"STARLINK-1185","OBJECT_ID":"2020-006AV","EPOCH":"2025-10-06T03:43:43.359744","MEAN_MOTION":15.06408157,"ECCENTRICITY":0.0001419,"INCLINATION":53.0537,"RA_OF_ASC_NODE":220.3484,"ARG_OF_PERICENTER":92.8475,"MEAN_ANOMALY":267.2677,"EPHEMERIS_TYPE":0,"CLASSIFICATION_TYPE":"U","NORAD_CAT_ID":45087,"ELEMENT_SET_NO":999,"REV_AT_EPOCH":31373,"BSTAR":0.00028853,"MEAN_MOTION_DOT":4.02e-5,"MEAN_MOTION_DDOT":0},{"OBJECT_NAME":"STARLINK-1183","OBJECT_ID":"2020-006AW","EPOCH":"2025-10-06T02:40:01.379712","MEAN_MOTION":15.06402199,"ECCENTRICITY":0.0001261,"INCLINATION":53.0537,"RA_OF_ASC_NODE":220.5478,"ARG_OF_PERICENTER":92.8127,"MEAN_ANOMALY":267.3006,"EPHEMERIS_TYPE":0,"CLASSIFICATION_TYPE":"U","NORAD_CAT_ID":45088,"ELEMENT_SET_NO":999,"REV_AT_EPOCH":31372,"BSTAR":0.0003842,"MEAN_MOTION_DOT":5.446e-5,"MEAN_MOTION_DDOT":0},{"OBJECT_NAME":"STARLINK-1176","OBJECT_ID":"2020-006AY","EPOCH":"2025-10-06T09:14:27.185568","MEAN_MOTION":15.89368919,"ECCENTRICITY":0.0001834,"INCLINATION":53.0468,"RA_OF_ASC_NODE":164.7263,"ARG_OF_PERICENTER":62.2974,"MEAN_ANOMALY":297.8237,"EPHEMERIS_TYPE":0,"CLASSIFICATION_TYPE":"U","NORAD_CAT_ID":45090,"ELEMENT_SET_NO":999,"REV_AT_EPOCH":31453,"BSTAR":0.000888,"MEAN_MOTION_DOT":0.00271405,"MEAN_MOTION_DDOT":0},{"OBJECT_NAME":"STARLINK-1142","OBJECT_ID":"2020-006BB","EPOCH":"2025-10-05T09:40:00.879744","MEAN_MOTION":15.53943634,"ECCENTRICITY":0.0005157,"INCLINATION":53.0375,"RA_OF_ASC_NODE":166.4881,"ARG_OF_PERICENTER":132.7239,"MEAN_ANOMALY":227.4206,"EPHEMERIS_TYPE":0,"CLASSIFICATION_TYPE":"U","NORAD_CAT_ID":45093,"ELEMENT_SET_NO":999,"REV_AT_EPOCH":31442,"BSTAR":0.0016021,"MEAN_MOTION_DOT":0.0010619,"MEAN_MOTION_DDOT":0},{"OBJECT_NAME":"STARLINK-1147","OBJECT_ID":"2020-006BD","EPOCH":"2025-10-06T16:42:36.374976","MEAN_MOTION":16.06319347,"ECCENTRICITY":0.0001409,"INCLINATION":53.0333,"RA_OF_ASC_NODE":158.4075,"ARG_OF_PERICENTER":149.8355,"MEAN_ANOMALY":310.9228,"EPHEMERIS_TYPE":0,"CLASSIFICATION_TYPE":"U","NORAD_CAT_ID":45095,"ELEMENT_SET_NO":999,"REV_AT_EPOCH":31493,"BSTAR":0.0004616,"MEAN_MOTION_DOT":0.00350642,"MEAN_MOTION_DDOT":6.8325e-5},{"OBJECT_NAME":"STARLINK-1152","OBJECT_ID":"2020-006BE","EPOCH":"2025-10-06T06:16:02.941824","MEAN_MOTION":15.22385449,"ECCENTRICITY":0.0008634,"INCLINATION":53.0469,"RA_OF_ASC_NODE":205.0314,"ARG_OF_PERICENTER":92.2652,"MEAN_ANOMALY":267.9332,"EPHEMERIS_TYPE":0,"CLASSIFICATION_TYPE":"U","NORAD_CAT_ID":45096,"ELEMENT_SET_NO":999,"REV_AT_EPOCH":31395,"BSTAR":0.0013545,"MEAN_MOTION_DOT":0.00031512,"MEAN_MOTION_DDOT":0},{"OBJECT_NAME":"STARLINK-1184","OBJECT_ID":"2020-006BG","EPOCH":"2025-10-06T01:25:43.036032","MEAN_MOTION":15.06408294,"ECCENTRICITY":0.0001429,"INCLINATION":53.0541,"RA_OF_ASC_NODE":220.7798,"ARG_OF_PERICENTER":93.3966,"MEAN_ANOMALY":266.7187,"EPHEMERIS_TYPE":0,"CLASSIFICATION_TYPE":"U","NORAD_CAT_ID":45098,"ELEMENT_SET_NO":999,"REV_AT_EPOCH":31371,"BSTAR":0.00011932,"MEAN_MOTION_DOT":1.497e-5,"MEAN_MOTION_DDOT":0},{"OBJECT_NAME":"STARLINK-1193","OBJECT_ID":"2020-006BJ","EPOCH":"2025-10-06T02:55:56.912736","MEAN_MOTION":15.0641165,"ECCENTRICITY":0.0001558,"INCLINATION":53.0544,"RA_OF_ASC_NODE":220.4972,"ARG_OF_PERICENTER":92.5275,"MEAN_ANOMALY":267.5892,"EPHEMERIS_TYPE":0,"CLASSIFICATION_TYPE":"U","NORAD_CAT_ID":45100,"ELEMENT_SET_NO":999,"REV_AT_EPOCH":31372,"BSTAR":0.00071637,"MEAN_MOTION_DOT":0.00010408,"MEAN_MOTION_DDOT":0},{"OBJECT_NAME":"STARLINK-1143","OBJECT_ID":"2020-012B","EPOCH":"2025-10-06T12:13:13.031040","MEAN_MOTION":15.36569852,"ECCENTRICITY":0.0005097,"INCLINATION":53.0557,"RA_OF_ASC_NODE":348.1286,"ARG_OF_PERICENTER":299.8652,"MEAN_ANOMALY":60.1843,"EPHEMERIS_TYPE":0,"CLASSIFICATION_TYPE":"U","NORAD_CAT_ID":45179,"ELEMENT_SET_NO":999,"REV_AT_EPOCH":31203,"BSTAR":0.0015439,"MEAN_MOTION_DOT":0.00055967,"MEAN_MOTION_DDOT":0},{"OBJECT_NAME":"STARLINK-1202","OBJECT_ID":"2020-012F","EPOCH":"2025-10-06T12:23:52.423008","MEAN_MOTION":15.06401029,"ECCENTRICITY":0.0001387,"INCLINATION":53.0571,"RA_OF_ASC_NODE":18.7303,"ARG_OF_PERICENTER":93.6349,"MEAN_ANOMALY":266.4799,"EPHEMERIS_TYPE":0,"CLASSIFICATION_TYPE":"U","NORAD_CAT_ID":45183,"ELEMENT_SET_NO":999,"REV_AT_EPOCH":31160,"BSTAR":5.3131e-5,"MEAN_MOTION_DOT":5.1e-6,"MEAN_MOTION_DDOT":0},{"OBJECT_NAME":"STARLINK-1216","OBJECT_ID":"2020-012H","EPOCH":"2025-10-06T12:13:16.470624","MEAN_MOTION":15.06383245,"ECCENTRICITY":0.0001767,"INCLINATION":53.0563,"RA_OF_ASC_NODE":18.7596,"ARG_OF_PERICENTER":101.5116,"MEAN_ANOMALY":258.6071,"EPHEMERIS_TYPE":0,"CLASSIFICATION_TYPE":"U","NORAD_CAT_ID":45185,"ELEMENT_SET_NO":999,"REV_AT_EPOCH":31154,"BSTAR":-5.7604e-5,"MEAN_MOTION_DOT":-1.139e-5,"MEAN_MOTION_DDOT":0}]
